[{"OBJECT_NAME":"FFLY03","OBJECT_ID":"2025-188E","EPOCH":"2026-03-09T23:48:31.208832","MEAN_MOTION":14.92857001,"ECCENTRICITY":0.00085476,"INCLINATION":97.7385,"RA_OF_ASC_NODE":145.8163,"ARG_OF_PERICENTER":76.1578,"MEAN_ANOMALY":284.0592,"EPHEMERIS_TYPE":0,"CLASSIFICATION_TYPE":"U","NORAD_CAT_ID":65319,"ELEMENT_SET_NO":999,"REV_AT_EPOCH":2911,"BSTAR":0.00017967425,"MEAN_MOTION_DOT":1.806e-5,"MEAN_MOTION_DDOT":0},{"OBJECT_NAME":"ATLAS 28E DEB","OBJECT_ID":"1990-031F","EPOCH":"2026-03-09T23:20:22.354944","MEAN_MOTION":14.8907054,"ECCENTRICITY":0.00492653,"INCLINATION":89.9045,"RA_OF_ASC_NODE":245.9973,"ARG_OF_PERICENTER":224.0293,"MEAN_ANOMALY":135.7008,"EPHEMERIS_TYPE":0,"CLASSIFICATION_TYPE":"U","NORAD_CAT_ID":20565,"ELEMENT_SET_NO":999,"REV_AT_EPOCH":36885,"BSTAR":0.00032450895,"MEAN_MOTION_DOT":3.143e-5,"MEAN_MOTION_DDOT":0}]
